GLOBALSTAR M068         
1 32266U 07048D   25336.20820977 -.00000078  00000+0  14225-3 0  9994
2 32266  51.9857 150.0666 0001975 119.4578  52.8546 12.62834159838782
GLOBALSTAR M079         
1 37188U 10054A   25336.20913442 -.00000090  00000+0  75796-4 0  9998
2 37188  52.0057 348.3008 0000147   2.9216  75.3774 12.62268826697677
GLOBALSTAR M074         
1 37189U 10054B   25336.30029697 -.00000086  00000+0  99256-4 0  9992
2 37189  52.0035 347.3195 0000385  62.4965 310.1489 12.62263804698299
GLOBALSTAR M076         
1 37190U 10054C   25336.26302726 -.00000092  00000+0  65152-4 0  9991
2 37190  52.0050 347.6209 0000369  34.5569  47.3475 12.62267675698002
GLOBALSTAR M077         
1 37191U 10054D   25336.30079544 -.00000079  00000+0  35254-4 0  9991
2 37191  52.0116 319.4726 0017671 313.8474 152.6760 11.82670137698121
GLOBALSTAR M075         
1 37192U 10054E   25336.18630310 -.00000098  00000+0  34385-4 0  9997
2 37192  51.9967  30.0153 0000441 115.8736 278.7214 12.62269997697065
GLOBALSTAR M073         
1 37193U 10054F   25336.11768812 -.00000100  00000+0  20329-4 0  9997
2 37193  52.0074 304.1752 0000479  25.9966  54.6702 12.62264722699048
GLOBALSTAR M083         
1 37739U 11033A   25336.22630427 -.00000083  00000+0  11362-3 0  9999
2 37739  51.9857 252.3429 0000676  50.0834 106.3258 12.62265073668078
GLOBALSTAR M088         
1 37740U 11033B   25335.77447406 -.00000075  00000+0  15972-3 0  9995
2 37740  52.0184 159.6674 0001133  95.9868 285.3335 12.62270793663568
GLOBALSTAR M091         
1 37741U 11033C   25335.70674557 -.00000097  00000+0  38151-4 0  9997
2 37741  51.9979 123.1304 0000917 115.9980 256.9288 12.62262184664345
GLOBALSTAR M085         
1 37742U 11033D   25336.24991947 -.00000108  00000+0 -22928-4 0  9992
2 37742  52.0139  72.5961 0000621 139.6612 243.3360 12.62266993664926
GLOBALSTAR M081         
1 37743U 11033E   25336.27527929 -.00000115  00000+0 -65389-4 0  9997
2 37743  51.9964  75.1779 0000551 119.6112 259.1104 12.62270603665073
GLOBALSTAR M089         
1 37744U 11033F   25336.15866596 -.00000102  00000+0  10368-4 0  9993
2 37744  51.9951  29.7297 0000566  86.7690 302.6799 12.62261683665905
GLOBALSTAR M084         
1 38040U 11080A   25336.19813088 -.00000083  00000+0  11376-3 0  9994
2 38040  52.0009 256.9888 0001031  54.4905  93.1438 12.62266043643880
GLOBALSTAR M080         
1 38041U 11080B   25336.16793841 -.00000088  00000+0  89661-4 0  9994
2 38041  52.0063 258.7304 0000628  99.1695  41.1938 12.62271705644001
GLOBALSTAR M082         
1 38042U 11080C   25336.10950084 -.00000065  00000+0  21367-3 0  9996
2 38042  52.0062 214.3889 0000810  93.0791  71.2428 12.62265665644703
GLOBALSTAR M092         
1 38043U 11080D   25336.20843902 -.00000096  00000+0  45640-4 0  9993
2 38043  52.0103 304.4730 0000474  56.4912 317.1512 12.62267832643174
GLOBALSTAR M090         
1 38044U 11080E   25336.05264243 -.00000067  00000+0  20577-3 0  9991
2 38044  52.0105 208.4546 0000825  73.8141  70.9698 12.62264900644816
GLOBALSTAR M086         
1 38045U 11080F   25336.07842596 -.00000067  00000+0  20762-3 0  9993
2 38045  51.9880 208.6267 0001178  16.7997 134.1961 12.62280554644767
GLOBALSTAR M097         
1 39072U 13005A   25336.15239774 -.00000101  00000+0  13768-4 0  9998
2 39072  52.0028 123.1257 0000756 101.8444 258.2508 12.62267849592026
GLOBALSTAR M093         
1 39073U 13005B   25335.57204869 -.00000098  00000+0  34018-4 0  9997
2 39073  52.0089 118.1648 0000567 114.4088 245.6838 12.62270875591901
GLOBALSTAR M094         
1 39074U 13005C   25336.20532406 -.00000102  00000+0  92486-5 0  9990
2 39074  51.9983  30.5506 0000215 148.5576 211.5304 12.62265005593599
GLOBALSTAR M096         
1 39075U 13005D   25336.21841131 -.00000110  00000+0 -34642-4 0  9999
2 39075  52.0080  79.1547 0000567 134.7437 225.3476 12.62269051592516
GLOBALSTAR M078         
1 39076U 13005E   25335.79655136 -.00000076  00000+0  15445-3 0  9999
2 39076  51.9838 164.7254 0001169 139.9238 220.1715 12.62272288591083
GLOBALSTAR M095         
1 39077U 13005F   25336.21864609 -.00000080  00000+0  13487-3 0  9994
2 39077  52.0048 160.7634 0000783 114.3615 245.7334 12.62267098590996
GLOBALSTAR M087         
1 52888U 22064A   25336.07325341 -.00000096  00000+0  43591-4 0  9990
2 52888  52.0011 302.5560 0000257  37.9737 322.1148 12.62260813166244
